PTD-R (TYVAK-0127)      
1 60523U 24149BH  26068.81355855  .00144621  00000+0  12021-2 0  9993
2 60523  97.3759 162.0693 0004267 248.5856 111.4951 15.69700541 87692
STARLINK-11307 [DTC]    
1 61210U 24171L   26068.56111920 -.00003500  00000+0 -24039-4 0  9993
2 61210  53.1605 177.2511 0001226 128.1588 231.9540 15.69712277 84373
